{"type": "FeatureCollection", "features": [ {"type": "Feature", "properties": {"norad_id": 33825, "name": "COSMOS 2251 DEB", "group": "cosmos-2251-debris", "lat": -4.019210204297884, "lon": 32.158940129415086, "alt_km": 605.919125435873, "timestamp": "2025-12-09T21:34:11.802164+00:00", "meta": {"OBJECT_NAME": "COSMOS 2251 DEB", "OBJECT_ID": "1993-036BS", "EPOCH": "2025-12-09T14:08:57.522624", "MEAN_MOTION": 14.69720693, "ECCENTRICITY": 0.00843892, "INCLINATION": 73.985, "RA_OF_ASC_NODE": 33.9162, "ARG_OF_PERICENTER": 1.7359, "MEAN_ANOMALY": 159.0209, "EPHEMERIS_TYPE": 0, "CLASSIFICATION_TYPE": "U", "NORAD_CAT_ID": 33825, "ELEMENT_SET_NO": 999, "REV_AT_EPOCH": 88833, "BSTAR": 0.001121605, "MEAN_MOTION_DOT": 7.033e-05, "MEAN_MOTION_DDOT": 0}, "tle": {"line1": "1 33825U 93036BS  25343.58955466  .00007033  00000+0  11216-2 0  9992", "line2": "2 33825  73.9850  33.9162 0084389   1.7359 159.0209 14.69720693888339"}}, "geometry": {"type": "Point", "coordinates": [32.158940129415086, -4.019210204297884]}}, {"type": "Feature", "properties": {"norad_id": 33826, "name": "COSMOS 2251 DEB", "group": "cosmos-2251-debris", "lat": 64.41730343618592, "lon": 91.85721432219111, "alt_km": 662.4307179168218, "timestamp": "2025-12-09T21:34:11.802176+00:00", "meta": {"OBJECT_NAME": "COSMOS 2251 DEB", "OBJECT_ID": "1993-036BT", "EPOCH": "2025-12-09T11:24:12.838176", "MEAN_MOTION": 14.516744, "ECCENTRICITY": 0.00835527, "INCLINATION": 74.0648, "RA_OF_ASC_NODE": 56.0133, "ARG_OF_PERICENTER": 101.4277, "MEAN_ANOMALY": 275.9832, "EPHEMERIS_TYPE": 0, "CLASSIFICATION_TYPE": "U", "NORAD_CAT_ID": 33826, "ELEMENT_SET_NO": 999, "REV_AT_EPOCH": 87722, "BSTAR": 0.0016873217, "MEAN_MOTION_DOT": 7.063e-05, "MEAN_MOTION_DDOT": 0}, "tle": {"line1": "1 33826U 93036BT  25343.47514859  .00007063  00000+0  16873-2 0  9995", "line2": "2 33826  74.0648  56.0133 0083552 101.4277 275.9832 14.51674400877220"}}, "geometry": {"type": "Point", "coordinates": [91.85721432219111, 64.41730343618592]}}, {"type": "Feature", "properties": {"norad_id": 33828, "name": "COSMOS 2251 DEB", "group": "cosmos-2251-debris", "lat": 40.44218714631724, "lon": -102.51535357371434, "alt_km": 739.144207849592, "timestamp": "2025-12-09T21:34:11.802187+00:00", "meta": {"OBJECT_NAME": "COSMOS 2251 DEB", "OBJECT_ID": "1993-036BV", "EPOCH": "2025-12-09T12:13:16.169088", "MEAN_MOTION": 14.44317561, "ECCENTRICITY": 0.0029421, "INCLINATION": 74.0469, "RA_OF_ASC_NODE": 244.0973, "ARG_OF_PERICENTER": 317.5075, "MEAN_ANOMALY": 220.0939, "EPHEMERIS_TYPE": 0, "CLASSIFICATION_TYPE": "U", "NORAD_CAT_ID": 33828, "ELEMENT_SET_NO": 999, "REV_AT_EPOCH": 88266, "BSTAR": 0.00084562767, "MEAN_MOTION_DOT": 2.899e-05, "MEAN_MOTION_DDOT": 0}, "tle": {"line1": "1 33828U 93036BV  25343.50921492  .00002899  00000+0  84563-3 0  9990", "line2": "2 33828  74.0469 244.0973 0029421 317.5075 220.0939 14.44317561882662"}}, "geometry": {"type": "Point", "coordinates": [-102.51535357371434, 40.44218714631724]}}, {"type": "Feature", "properties": {"norad_id": 33830, "name": "COSMOS 2251 DEB", "group": "cosmos-2251-debris", "lat": -52.72563165915008, "lon": -146.16310153095043, "alt_km": 627.7301759014499, "timestamp": "2025-12-09T21:34:11.802197+00:00", "meta": {"OBJECT_NAME": "COSMOS 2251 DEB", "OBJECT_ID": "1993-036BX", "EPOCH": "2025-12-09T11:15:47.484576", "MEAN_MOTION": 14.76833095, "ECCENTRICITY": 0.0042277, "INCLINATION": 74.0321, "RA_OF_ASC_NODE": 236.7777, "ARG_OF_PERICENTER": 357.481, "MEAN_ANOMALY": 184.8508, "EPHEMERIS_TYPE": 0, "CLASSIFICATION_TYPE": "U", "NORAD_CAT_ID": 33830, "ELEMENT_SET_NO": 999, "REV_AT_EPOCH": 89423, "BSTAR": 0.001353622, "MEAN_MOTION_DOT": 9.625e-05, "MEAN_MOTION_DDOT": 0}, "tle": {"line1": "1 33830U 93036BX  25343.46929959  .00009625  00000+0  13536-2 0  9999", "line2": "2 33830  74.0321 236.7777 0042277 357.4810 184.8508 14.76833095894231"}}, "geometry": {"type": "Point", "coordinates": [-146.16310153095043, -52.72563165915008]}}, {"type": "Feature", "properties": {"norad_id": 33832, "name": "COSMOS 2251 DEB", "group": "cosmos-2251-debris", "lat": 18.550694469134914, "lon": 29.88945786572485, "alt_km": 690.0856572015282, "timestamp": "2025-12-09T21:34:11.802208+00:00", "meta": {"OBJECT_NAME": "COSMOS 2251 DEB", "OBJECT_ID": "1993-036BZ", "EPOCH": "2025-12-09T10:10:36.752736", "MEAN_MOTION": 14.60580633, "ECCENTRICITY": 0.00251552, "INCLINATION": 74.0535, "RA_OF_ASC_NODE": 216.3008, "ARG_OF_PERICENTER": 248.0888, "MEAN_ANOMALY": 297.7158, "EPHEMERIS_TYPE": 0, "CLASSIFICATION_TYPE": "U", "NORAD_CAT_ID": 33832, "ELEMENT_SET_NO": 999, "REV_AT_EPOCH": 88376, "BSTAR": 0.0018749712, "MEAN_MOTION_DOT": 9.136e-05, "MEAN_MOTION_DDOT": 0}, "tle": {"line1": "1 33832U 93036BZ  25343.42403649  .00009136  00000+0  18750-2 0  9990", "line2": "2 33832  74.0535 216.3008 0025155 248.0888 297.7158 14.60580633883768"}}, "geometry": {"type": "Point", "coordinates": [29.88945786572485, 18.550694469134914]}}, {"type": "Feature", "properties": {"norad_id": 33835, "name": "COSMOS 2251 DEB", "group": "cosmos-2251-debris", "lat": -19.587055250911614, "lon": 100.70546026818444, "alt_km": 729.7349227864042, "timestamp": "2025-12-09T21:34:11.802219+00:00", "meta": {"OBJECT_NAME": "COSMOS 2251 DEB", "OBJECT_ID": "1993-036CC", "EPOCH": "2025-12-09T15:10:28.872768", "MEAN_MOTION": 14.62194331, "ECCENTRICITY": 0.00550012, "INCLINATION": 74.0575, "RA_OF_ASC_NODE": 107.0527, "ARG_OF_PERICENTER": 161.4618, "MEAN_ANOMALY": 216.1424, "EPHEMERIS_TYPE": 0, "CLASSIFICATION_TYPE": "U", "NORAD_CAT_ID": 33835, "ELEMENT_SET_NO": 999, "REV_AT_EPOCH": 88744, "BSTAR": 0.0017703607, "MEAN_MOTION_DOT": 9.092e-05, "MEAN_MOTION_DDOT": 0}, "tle": {"line1": "1 33835U 93036CC  25343.63227862  .00009092  00000+0  17704-2 0  9996", "line2": "2 33835  74.0575 107.0527 0055001 161.4618 216.1424 14.62194331887447"}}, "geometry": {"type": "Point", "coordinates": [100.70546026818444, -19.587055250911614]}}, {"type": "Feature", "properties": {"norad_id": 33836, "name": "COSMOS 2251 DEB", "group": "cosmos-2251-debris", "lat": -6.208741932404557, "lon": 86.34555546357467, "alt_km": 628.1791371220243, "timestamp": "2025-12-09T21:34:11.802229+00:00", "meta": {"OBJECT_NAME": "COSMOS 2251 DEB", "OBJECT_ID": "1993-036CD", "EPOCH": "2025-12-09T13:26:34.031040", "MEAN_MOTION": 14.79518119, "ECCENTRICITY": 0.00225132, "INCLINATION": 73.9973, "RA_OF_ASC_NODE": 265.2242, "ARG_OF_PERICENTER": 119.5959, "MEAN_ANOMALY": 63.6132, "EPHEMERIS_TYPE": 0, "CLASSIFICATION_TYPE": "U", "NORAD_CAT_ID": 33836, "ELEMENT_SET_NO": 999, "REV_AT_EPOCH": 64041, "BSTAR": 0.0018820607, "MEAN_MOTION_DOT": 0.00014133, "MEAN_MOTION_DDOT": 0}, "tle": {"line1": "1 33836U 93036CD  25343.56011610  .00014133  00000+0  18821-2 0  9994", "line2": "2 33836  73.9973 265.2242 0022513 119.5959  63.6132 14.79518119640410"}}, "geometry": {"type": "Point", "coordinates": [86.34555546357467, -6.208741932404557]}}, {"type": "Feature", "properties": {"norad_id": 33837, "name": "COSMOS 2251 DEB", "group": "cosmos-2251-debris", "lat": 71.09974159944683, "lon": -175.91133044933034, "alt_km": 741.5794756427322, "timestamp": "2025-12-09T21:34:11.802240+00:00", "meta": {"OBJECT_NAME": "COSMOS 2251 DEB", "OBJECT_ID": "1993-036CE", "EPOCH": "2025-12-09T07:52:03.791424", "MEAN_MOTION": 14.50690817, "ECCENTRICITY": 0.0035829, "INCLINATION": 74.0132, "RA_OF_ASC_NODE": 62.0215, "ARG_OF_PERICENTER": 284.3051, "MEAN_ANOMALY": 75.4132, "EPHEMERIS_TYPE": 0, "CLASSIFICATION_TYPE": "U", "NORAD_CAT_ID": 33837, "ELEMENT_SET_NO": 999, "REV_AT_EPOCH": 88746, "BSTAR": 0.00048999, "MEAN_MOTION_DOT": 1.913e-05, "MEAN_MOTION_DDOT": 0}, "tle": {"line1": "1 33837U 93036CE  25343.32782166  .00001913  00000+0  48999-3 0  9992", "line2": "2 33837  74.0132  62.0215 0035829 284.3051  75.4132 14.50690817887465"}}, "geometry": {"type": "Point", "coordinates": [-175.91133044933034, 71.09974159944683]}}, {"type": "Feature", "properties": {"norad_id": 33838, "name": "COSMOS 2251 DEB", "group": "cosmos-2251-debris", "lat": -3.091978314806181, "lon": 154.24808256826233, "alt_km": 730.4687576147608, "timestamp": "2025-12-09T21:34:11.802250+00:00", "meta": {"OBJECT_NAME": "COSMOS 2251 DEB", "OBJECT_ID": "1993-036CF", "EPOCH": "2025-12-09T11:47:23.980128", "MEAN_MOTION": 14.48348457, "ECCENTRICITY": 0.00274534, "INCLINATION": 74.0363, "RA_OF_ASC_NODE": 155.8969, "ARG_OF_PERICENTER": 278.2149, "MEAN_ANOMALY": 114.5223, "EPHEMERIS_TYPE": 0, "CLASSIFICATION_TYPE": "U", "NORAD_CAT_ID": 33838, "ELEMENT_SET_NO": 999, "REV_AT_EPOCH": 88522, "BSTAR": 0.00069355673, "MEAN_MOTION_DOT": 2.58e-05, "MEAN_MOTION_DDOT": 0}, "tle": {"line1": "1 33838U 93036CF  25343.49124977  .00002580  00000+0  69356-3 0  9992", "line2": "2 33838  74.0363 155.8969 0027453 278.2149 114.5223 14.48348457885228"}}, "geometry": {"type": "Point", "coordinates": [154.24808256826233, -3.091978314806181]}}, {"type": "Feature", "properties": {"norad_id": 33839, "name": "COSMOS 2251 DEB", "group": "cosmos-2251-debris", "lat": 56.83433785531083, "lon": 5.967240013183127, "alt_km": 727.3449465155145, "timestamp": "2025-12-09T21:34:11.802260+00:00", "meta": {"OBJECT_NAME": "COSMOS 2251 DEB", "OBJECT_ID": "1993-036CG", "EPOCH": "2025-12-09T14:34:09.048288", "MEAN_MOTION": 14.64407944, "ECCENTRICITY": 0.00850173, "INCLINATION": 74.039, "RA_OF_ASC_NODE": 212.4994, "ARG_OF_PERICENTER": 325.3101, "MEAN_ANOMALY": 56.5172, "EPHEMERIS_TYPE": 0, "CLASSIFICATION_TYPE": "U", "NORAD_CAT_ID": 33839, "ELEMENT_SET_NO": 999, "REV_AT_EPOCH": 89534, "BSTAR": 0.0004074477, "MEAN_MOTION_DOT": 2.238e-05, "MEAN_MOTION_DDOT": 0}, "tle": {"line1": "1 33839U 93036CG  25343.60704917  .00002238  00000+0  40745-3 0  9995", "line2": "2 33839  74.0390 212.4994 0085017 325.3101  56.5172 14.64407944895346"}}, "geometry": {"type": "Point", "coordinates": [5.967240013183127, 56.83433785531083]}}]}